STARLINK-37154          
1 68316U 26057Y   26087.83335648 -.01150392  44657-3 -17737-2 0  9996
2 68316  97.2780 210.9743 0001048  74.8273 204.3137 16.04322357  2239
